STARLINK-30927          
1 58382U 23178J   26139.98643613 -.00002134  00000+0 -52035-4 0  9998
2 58382  53.1613  29.4563 0001435  80.2975 279.8190 15.34407793140790
STARLINK-30921          
1 58383U 23178K   26139.97171022 -.00000466  00000+0 -26561-5 0  9990
2 58383  53.1599  29.3633 0001085  55.1076 305.0029 15.34396746140793
STARLINK-30825          
1 58384U 23178L   26139.95277088  .00000381  00000+0  22408-4 0  9997
2 58384  53.1617  29.2175 0001287  88.0845 272.0305 15.34392939140811
STARLINK-30930          
1 58385U 23178M   26139.93383833 -.00001016  00000+0 -18947-4 0  9993
2 58385  53.1622  29.1302 0001403  84.7931 275.3232 15.34395202140684
STARLINK-30929          
1 58386U 23178N   26140.00535268  .00000435  00000+0  24018-4 0  9993
2 58386  53.1593  29.3709 0001644  79.4842 280.6345 15.34392227140794
STARLINK-30898          
1 58387U 23178P   26139.93181455  .00000657  00000+0  30578-4 0  9993
2 58387  53.1610  29.6961 0001338  64.9676 295.1465 15.34391935140803
STARLINK-30913          
1 58388U 23178Q   26139.98223111  .00000743  00000+0  33129-4 0  9996
2 58388  53.1609  29.4318 0001119 110.7130 249.3992 15.34398591140810
STARLINK-30938          
1 58389U 23178R   26139.98537017  .00000160  00000+0  17548-4 0  9990
2 58389  53.1618  30.1542 0001352  80.6518 279.4635 15.30196202140801
STARLINK-30868          
1 58390U 23178S   26139.97593317 -.00000066  00000+0  91838-5 0  9997
2 58390  53.1606  29.3911 0000773  72.0599 288.0488 15.34386014140819
STARLINK-30916          
1 58391U 23178T   26139.92550338  .00003043  00000+0  10120-3 0  9999
2 58391  53.1607  29.6854 0001425  92.2312 267.8854 15.34388058140803
STARLINK-30939          
1 58393U 23178V   26139.96539867 -.00000145  00000+0  68441-5 0  9991
2 58393  53.1614  29.3216 0001293  61.7907 298.3226 15.34394428140682
STARLINK-30887          
1 58394U 23178W   26139.93601661 -.00001229  00000+0 -25258-4 0  9994
2 58394  53.1580  29.6804 0001469  90.6124 269.5047 15.34383762140789
STARLINK-30934          
1 58395U 23178X   26139.98014846  .00013507  00000+0  41109-3 0  9995
2 58395  53.1595  29.4934 0001331  80.0089 280.1064 15.34329662140742
MALLIGYONG-1            
1 58400U 23179A   26140.30342326  .00002010  00000+0  89704-4 0  9999
2 58400  97.3051  22.6363 0010012 120.4469 239.7758 15.22462125138515
STARLINK-30964          
1 58402U 23180A   26139.94351301  .00002633  00000+0  10526-3 0  9990
2 58402  43.0086  10.1222 0001725 280.1865  79.8792 15.27559296138527
STARLINK-30844          
1 58403U 23180B   26139.96790636  .00003960  00000+0  15340-3 0  9994
2 58403  43.0024  10.3058 0001626 234.2292 125.8409 15.27571463138407
STARLINK-30876          
1 58404U 23180C   26139.96405651  .00000022  00000+0  10325-4 0  9990
2 58404  43.0049  10.2805 0002348 279.0676  80.9910 15.27580101138529
STARLINK-30952          
1 58405U 23180D   26139.69223417  .00004127  00000+0  15938-3 0  9993
2 58405  43.0033  11.6784 0001325 263.1798  96.8903 15.27583136138379
STARLINK-30925          
1 58406U 23180E   26139.69480018 -.00004314  00000+0 -14734-3 0  9999
2 58406  43.0054  11.6988 0002334 285.8890  74.1705 15.27573641138362
STARLINK-30954          
1 58407U 23180F   26139.93707112  .00001975  00000+0  81279-4 0  9991
2 58407  43.0047  10.0702 0001342 288.2737  71.7969 15.27573187138525
STARLINK-30906          
1 58408U 23180G   26139.98281033  .00002618  00000+0  10461-3 0  9995
2 58408  43.0055  13.6561 0001508 265.5585  94.5094 15.27581216138377
STARLINK-30940          
1 58409U 23180H   26140.30144169  .00001210  00000+0  53489-4 0  9997
2 58409  43.0003 223.0383 0001529 259.0931 100.9749 15.27590597140280
STARLINK-30933          
1 58410U 23180J   26139.52822512  .00004801  00000+0  18381-3 0  9996
2 58410  43.0000 226.6864 0001343 274.0294  86.0404 15.27587576140178
STARLINK-30919          
1 58411U 23180K   26139.91649647  .00006136  00000+0  23237-3 0  9995
2 58411  43.0042   9.8452 0001475 259.7610 100.3075 15.27571044138429
STARLINK-30924          
1 58412U 23180L   26139.51482584  .00017798  00000+0  43027-3 0  9992
2 58412  42.9983 219.6600 0008510  12.6172 347.4896 15.40814444140252
STARLINK-30931          
1 58413U 23180M   26139.93710791 -.00000849  00000+0 -21298-4 0  9991
2 58413  43.0046 358.9282 0001720 284.0864  75.9797 15.27587123138657
STARLINK-30922          
1 58414U 23180N   26139.96021095  .00002122  00000+0  86661-4 0  9996
2 58414  43.0071  10.2323 0001843 274.6737  85.3904 15.27567198138521
STARLINK-30949          
1 58415U 23180P   26139.94991002  .00003923  00000+0  15201-3 0  9990
2 58415  43.0048  10.1413 0001357 258.2328 101.8372 15.27580277138525
STARLINK-30967          
1 58416U 23180Q   26140.01146502  .00005494  00000+0  20899-3 0  9992
2 58416  43.0027   9.7589 0001147 268.0636  92.0084 15.27583140138533
STARLINK-30955          
1 58417U 23180R   26139.91393619  .00002045  00000+0  83805-4 0  9999
2 58417  43.0029   9.8878 0001239 274.5166  85.5544 15.27580597138520
