OBJECT_NAME,OBJECT_ID,EPOCH,MEAN_MOTION,ECCENTRICITY,INCLINATION,RA_OF_ASC_NODE,ARG_OF_PERICENTER,MEAN_ANOMALY,EPHEMERIS_TYPE,CLASSIFICATION_TYPE,NORAD_CAT_ID,ELEMENT_SET_NO,REV_AT_EPOCH,BSTAR,MEAN_MOTION_DOT,MEAN_MOTION_DDOT
STARLINK-30927,2023-178J,2026-05-19T23:40:28.081632,15.34407793,.00014354,53.1613,29.4563,80.2975,279.8190,0,U,58382,999,14079,-.52035279E-4,-.2134E-4,0
STARLINK-30921,2023-178K,2026-05-19T23:19:15.763008,15.34396746,.00010851,53.1599,29.3633,55.1076,305.0029,0,U,58383,999,14079,-.265609E-5,-.466E-5,0
STARLINK-30825,2023-178L,2026-05-19T22:51:59.404032,15.34392939,.00012874,53.1617,29.2175,88.0845,272.0305,0,U,58384,999,14081,.22407518E-4,.381E-5,0
STARLINK-30930,2023-178M,2026-05-19T22:24:43.631712,15.34395202,.0001403,53.1622,29.1302,84.7931,275.3232,0,U,58385,999,14068,-.18947E-4,-.1016E-4,0
STARLINK-30929,2023-178N,2026-05-20T00:07:42.471552,15.34392227,.00016441,53.1593,29.3709,79.4842,280.6345,0,U,58386,999,14079,.24017805E-4,.435E-5,0
STARLINK-30898,2023-178P,2026-05-19T22:21:48.777120,15.34391935,.0001338,53.1610,29.6961,64.9676,295.1465,0,U,58387,999,14080,.30578E-4,.657E-5,0
STARLINK-30913,2023-178Q,2026-05-19T23:34:24.767904,15.34398591,.00011195,53.1609,29.4318,110.7130,249.3992,0,U,58388,999,14081,.3312888E-4,.743E-5,0
STARLINK-30938,2023-178R,2026-05-19T23:38:55.982688,15.30196202,.00013528,53.1618,30.1542,80.6518,279.4635,0,U,58389,999,14080,.1754796E-4,.16E-5,0
STARLINK-30868,2023-178S,2026-05-19T23:25:20.625888,15.34386014,.0000773,53.1606,29.3911,72.0599,288.0488,0,U,58390,999,14081,.91838E-5,-.66E-6,0
STARLINK-30916,2023-178T,2026-05-19T22:12:43.492032,15.34388058,.0001425,53.1607,29.6854,92.2312,267.8854,0,U,58391,999,14080,.1012E-3,.3043E-4,0
STARLINK-30939,2023-178V,2026-05-19T23:10:10.445088,15.34394428,.00012936,53.1614,29.3216,61.7907,298.3226,0,U,58393,999,14068,.6844125E-5,-.145E-5,0
STARLINK-30887,2023-178W,2026-05-19T22:27:51.835104,15.34383762,.0001469,53.1580,29.6804,90.6124,269.5047,0,U,58394,999,14078,-.25258E-4,-.1229E-4,0
STARLINK-30934,2023-178X,2026-05-19T23:31:24.826944,15.34329662,.0001331,53.1595,29.4934,80.0089,280.1064,0,U,58395,999,14074,.41109E-3,.13507E-3,0
MALLIGYONG-1,2023-179A,2026-05-20T07:16:55.769664,15.22462125,.00100124,97.3051,22.6363,120.4469,239.7758,0,U,58400,999,13851,.89704455E-4,.201E-4,0
STARLINK-30964,2023-180A,2026-05-19T22:38:39.524064,15.27559296,.0001725,43.0086,10.1222,280.1865,79.8792,0,U,58402,999,13852,.10526E-3,.2633E-4,0
STARLINK-30844,2023-180B,2026-05-19T23:13:47.109504,15.27571463,.00016263,43.0024,10.3058,234.2292,125.8409,0,U,58403,999,13840,.15340267E-3,.396E-4,0
STARLINK-30876,2023-180C,2026-05-19T23:08:14.482464,15.27580101,.00023483,43.0049,10.2805,279.0676,80.9910,0,U,58404,999,13852,.10324528E-4,.22E-6,0
STARLINK-30952,2023-180D,2026-05-19T16:36:49.032288,15.27583136,.00013254,43.0033,11.6784,263.1798,96.8903,0,U,58405,999,13837,.15937915E-3,.4127E-4,0
STARLINK-30925,2023-180E,2026-05-19T16:40:30.735552,15.27573641,.00023344,43.0054,11.6988,285.8890,74.1705,0,U,58406,999,13836,-.14734355E-3,-.4314E-4,0
STARLINK-30954,2023-180F,2026-05-19T22:29:22.944768,15.27573187,.0001342,43.0047,10.0702,288.2737,71.7969,0,U,58407,999,13852,.81279E-4,.1975E-4,0
STARLINK-30906,2023-180G,2026-05-19T23:35:14.812512,15.27581216,.00015083,43.0055,13.6561,265.5585,94.5094,0,U,58408,999,13837,.10461233E-3,.2618E-4,0
STARLINK-30940,2023-180H,2026-05-20T07:14:04.562016,15.27590597,.00015298,43.0003,223.0383,259.0931,100.9749,0,U,58409,999,14028,.53489358E-4,.121E-4,0
STARLINK-30933,2023-180J,2026-05-19T12:40:38.650368,15.27587576,.0001343,43.0000,226.6864,274.0294,86.0404,0,U,58410,999,14017,.18381357E-3,.4801E-4,0
STARLINK-30919,2023-180K,2026-05-19T21:59:45.295008,15.27571044,.0001475,43.0042,9.8452,259.7610,100.3075,0,U,58411,999,13842,.23237E-3,.6136E-4,0
STARLINK-30924,2023-180L,2026-05-19T12:21:20.952576,15.40814444,.00085107,42.9983,219.6600,12.6172,347.4896,0,U,58412,999,14025,.4302656E-3,.17798E-3,0
STARLINK-30931,2023-180M,2026-05-19T22:29:26.123424,15.27587123,.00017202,43.0046,358.9282,284.0864,75.9797,0,U,58413,999,13865,-.21298335E-4,-.849E-5,0
STARLINK-30922,2023-180N,2026-05-19T23:02:42.226080,15.27567198,.00018438,43.0071,10.2323,274.6737,85.3904,0,U,58414,999,13852,.8666124E-4,.2122E-4,0
STARLINK-30949,2023-180P,2026-05-19T22:47:52.225728,15.27580277,.00013575,43.0048,10.1413,258.2328,101.8372,0,U,58415,999,13852,.15201326E-3,.3923E-4,0
STARLINK-30967,2023-180Q,2026-05-20T00:16:30.577728,15.27583140,.00011479,43.0027,9.7589,268.0636,92.0084,0,U,58416,999,13853,.20898782E-3,.5494E-4,0
STARLINK-30955,2023-180R,2026-05-19T21:56:04.086816,15.27580597,.0001239,43.0029,9.8878,274.5166,85.5544,0,U,58417,999,13852,.83805E-4,.2045E-4,0
